{
  "type": "Feature",
  "properties": {
    "name": "Cabrera Archipelago National Park",
    "osm_relation": 10036151,
    "wdpa_id": "196045",
    "source": "\u00a9 OpenStreetMap contributors, ODbL"
  },
  "bbox": [
    2.8322409,
    38.948808,
    3.3822503,
    39.2821553
  ],
  "geometry": {
    "type": "Polygon",
    "coordinates": [
      [
        [
          2.8322409,
          38.948808
        ],
        [
          3.082247,
          38.9488103
        ],
        [
          3.3822503,
          39.1988197
        ],
        [
          3.2489122,
          39.2821553
        ],
        [
          3.1822452,
          39.2238203
        ],
        [
          2.9655751,
          39.2238189
        ],
        [
          2.8905741,
          39.1654831
        ],
        [
          2.8905747,
          39.0988142
        ],
        [
          3.0155773,
          39.0988154
        ],
        [
          2.8322409,
          38.948808
        ]
      ]
    ]
  }
}
